NORAD_CAT_ID,OBJECT_NAME,OBJECT_TYPE,EPOCH,MEAN_MOTION,ECCENTRICITY,INCLINATION,RA_OF_ASC_NODE,ARG_OF_PERICENTER,MEAN_ANOMALY,BSTAR,MEAN_MOTION_DOT,MEAN_MOTION_DDOT,TLE_LINE0,TLE_LINE1,TLE_LINE2,SEMIMAJOR_AXIS,PERIOD,APOGEE,PERIGEE,DECAYED
56492.0,STARLINK-5846,PAYLOAD,2023-06-08 09:15:09,15.69925174,0.0003621,69.9976,164.7042,268.3386,91.7395,8.5532e-06,8.16e-06,0.0,0 STARLINK-5846,1 56492U 23064AW  23159.38552719  .00000816  00000-0  85532-5 0  9994,2 56492  69.9976 164.7042 0003621 268.3386  91.7395 15.69925174  4878,6737.248,91.724,361.553,356.674,0.0
56492.0,STARLINK-5846,PAYLOAD,2023-06-09 09:43:11,15.69907602,0.0003761,69.9968,161.8369,262.5367,97.5402,4.8953e-05,5.674e-05,0.0,0 STARLINK-5846,1 56492U 23064AW  23160.40499960  .00005674  00000-0  48953-4 0  9999,2 56492  69.9968 161.8369 0003761 262.5367  97.5402 15.69907602  5037,6737.298,91.725,361.697,356.629,0.0
56492.0,STARLINK-5846,PAYLOAD,2023-06-10 10:11:12,15.69933463,0.0003506,69.9976,158.9715,261.0903,98.9895,1.205e-05,1.237e-05,0.0,0 STARLINK-5846,1 56492U 23064AW  23161.42445574  .00001237  00000-0  12050-4 0  9994,2 56492  69.9976 158.9715 0003506 261.0903  98.9895 15.69933463  5197,6737.224,91.724,361.451,356.727,0.0
56492.0,STARLINK-5846,PAYLOAD,2023-06-10 17:49:59,15.69917714,0.0003722,69.9974,158.0765,266.1919,93.8851,3.9892e-06,2.67e-06,0.0,0 STARLINK-5846,1 56492U 23064AW  23161.74305076  .00000267  00000-0  39892-5 0  9997,2 56492  69.9974 158.0765 0003722 266.1919  93.8851 15.69917714  5247,6737.269,91.725,361.642,356.627,0.0
56492.0,STARLINK-5846,PAYLOAD,2023-06-10 20:53:29,15.69926788,0.0003405,69.9982,157.7197,251.6231,108.4595,1.3027e-05,1.354e-05,0.0,0 STARLINK-5846,1 56492U 23064AW  23161.87047663  .00001354  00000-0  13027-4 0  9995,2 56492  69.9982 157.7197 0003405 251.6231 108.4595 15.69926788  4917,6737.243,91.724,361.402,356.814,0.0
56492.0,STARLINK-5846,PAYLOAD,2023-06-11 03:00:30,15.69922696,0.0003597,69.9975,157.0007,265.5809,94.4976,4.2169e-06,2.94e-06,0.0,0 STARLINK-5846,1 56492U 23064AW  23162.12534885  .00000294  00000-0  42169-5 0  9993,2 56492  69.9975 157.0007 0003597 265.5809  94.4976 15.69922696  4954,6737.255,91.724,361.544,356.697,0.0
56492.0,STARLINK-5846,PAYLOAD,2023-06-11 16:46:16,15.69914049,0.0002766,69.9981,155.3891,264.092,95.9961,7.2154e-06,6.55e-06,0.0,0 STARLINK-5846,1 56492U 23064AW  23162.69880727  .00000655  00000-0  72154-5 0  9992,2 56492  69.9981 155.3891 0002766 264.0920  95.9961 15.69914049  5042,6737.28,91.725,361.008,357.281,0.0
56492.0,STARLINK-5846,PAYLOAD,2023-06-12 01:56:46,15.69925366,0.0003677,69.9978,154.313,268.0415,92.0359,7.901e-06,7.37e-06,0.0,0 STARLINK-5846,1 56492U 23064AW  23163.08109832  .00000737  00000-0  79010-5 0  9996,2 56492  69.9978 154.3130 0003677 268.0415  92.0359 15.69925366  5108,6737.248,91.724,361.59,356.635,0.0
56492.0,STARLINK-5846,PAYLOAD,2023-06-12 08:03:46,15.69934109,0.0003554,69.9974,153.5967,271.8487,88.2302,1.2522e-05,1.294e-05,0.0,0 STARLINK-5846,1 56492U 23064AW  23163.33595920  .00001294  00000-0  12522-4 0  9994,2 56492  69.9974 153.5967 0003554 271.8487  88.2302 15.69934109  5490,6737.223,91.724,361.482,356.693,0.0
56492.0,STARLINK-5846,PAYLOAD,2023-06-12 09:35:33,15.69918831,0.0003128,69.9971,153.4174,291.3777,68.7085,3.1229e-06,1.63e-06,0.0,0 STARLINK-5846,1 56492U 23064AW  23163.39969031  .00000163  00000-0  31229-5 0  9998,2 56492  69.9971 153.4174 0003128 291.3777  68.7085 15.69918831  5150,6737.266,91.724,361.239,357.024,0.0
56492.0,STARLINK-5846,PAYLOAD,2023-06-12 23:21:18,15.69922157,0.0003999,69.9968,151.8051,263.0437,97.0304,-5.7153e-06,-9e-06,0.0,0 STARLINK-5846,1 56492U 23064AW  23163.97313620 -.00000900  00000-0 -57153-5 0  9994,2 56492  69.9968 151.8051 0003999 263.0437  97.0304 15.69922157  5590,6737.257,91.724,361.816,356.427,0.0
56492.0,STARLINK-5846,PAYLOAD,2023-06-13 02:24:44,15.69996696,0.000273,69.9992,151.4489,257.7948,102.2942,9.7403e-05,0.00011549,0.0,0 STARLINK-5846,1 56492U 23064AW  23164.10050937  .00011549  00000-0  97403-4 0  9999,2 56492  69.9992 151.4489 0002730 257.7948 102.2942 15.69996696  5616,6737.043,91.72,360.748,357.069,0.0
56492.0,STARLINK-5846,PAYLOAD,2023-06-13 07:00:05,15.6991384,0.0002872,69.9978,150.9101,281.0673,79.02,3.8715e-06,2.53e-06,0.0,0 STARLINK-5846,1 56492U 23064AW  23164.29172640  .00000253  00000-0  38715-5 0  9997,2 56492  69.9978 150.9101 0002872 281.0673  79.0200 15.69913840  5299,6737.281,91.725,361.08,357.211,0.0
56492.0,STARLINK-5846,PAYLOAD,2023-06-14 01:21:05,15.69930483,0.0003193,69.9979,148.7631,260.7179,99.3656,8.7801e-06,8.43e-06,0.0,0 STARLINK-5846,1 56492U 23064AW  23165.05631437  .00000843  00000-0  87801-5 0  9991,2 56492  69.9979 148.7631 0003193 260.7179  99.3656 15.69930483  5769,6737.233,91.724,361.249,356.947,0.0
56492.0,STARLINK-5846,PAYLOAD,2023-06-14 05:56:21,15.69927005,0.0003304,69.999,148.2268,268.2109,91.8708,5.4582e-06,4.44e-06,0.0,0 STARLINK-5846,1 56492U 23064AW  23165.24746789  .00000444  00000-0  54582-5 0  9996,2 56492  69.9990 148.2268 0003304 268.2109  91.8708 15.69927005  5449,6737.243,91.724,361.334,356.882,0.0
56492.0,STARLINK-5846,PAYLOAD,2023-06-14 22:45:37,15.69921078,0.0003156,69.9981,146.2537,268.9436,91.1398,5.5405e-06,4.53e-06,0.0,0 STARLINK-5846,1 56492U 23064AW  23165.94835605  .00000453  00000-0  55405-5 0  9994,2 56492  69.9981 146.2537 0003156 268.9436  91.1398 15.69921078  5904,6737.26,91.724,361.251,356.999,0.0
56492.0,STARLINK-5846,PAYLOAD,2023-06-15 07:56:08,15.69929657,0.000321,69.9972,145.1773,261.3421,98.7411,1.1189e-05,1.133e-05,0.0,0 STARLINK-5846,1 56492U 23064AW  23166.33064876  .00001133  00000-0  11189-4 0  9998,2 56492  69.9972 145.1773 0003210 261.3421  98.7411 15.69929657  5962,6737.235,91.724,361.263,356.938,0.0
56492.0,STARLINK-5846,PAYLOAD,2023-06-15 15:34:54,15.69921243,0.0003049,69.9975,144.2837,266.226,93.8587,1.3042e-05,1.356e-05,0.0,0 STARLINK-5846,1 56492U 23064AW  23166.64923862  .00001356  00000-0  13042-4 0  9998,2 56492  69.9975 144.2837 0003049 266.2260  93.8587 15.69921243  6011,6737.259,91.724,361.179,357.07,0.0
56492.0,STARLINK-5846,PAYLOAD,2023-06-16 00:45:24,15.69934634,0.0003344,69.9979,143.2083,267.6828,92.3985,1.4723e-05,1.559e-05,0.0,0 STARLINK-5846,1 56492U 23064AW  23167.03152969  .00001559  00000-0  14723-4 0  9996,2 56492  69.9979 143.2083 0003344 267.6828  92.3985 15.69934634  6070,6737.221,91.724,361.339,356.833,0.0
56492.0,STARLINK-5846,PAYLOAD,2023-06-16 09:55:55,15.69924075,0.0003247,69.9988,142.132,271.2559,88.8264,-6.8722e-07,-2.95e-06,0.0,0 STARLINK-5846,1 56492U 23064AW  23167.41383475 -.00000295  00000-0 -68722-6 0  9994,2 56492  69.9988 142.1320 0003247 271.2559  88.8264 15.69924075  6131,6737.251,91.724,361.304,356.929,0.0
56492.0,STARLINK-5846,PAYLOAD,2023-06-16 16:02:55,15.6992156,0.0003143,69.9978,141.417,267.0237,93.0599,4.3988e-06,3.16e-06,0.0,0 STARLINK-5846,1 56492U 23064AW  23167.66870363  .00000316  00000-0  43988-5 0  9996,2 56492  69.9978 141.4170 0003143 267.0237  93.0599 15.69921560  5826,6737.258,91.724,361.241,357.006,0.0
56492.0,STARLINK-5846,PAYLOAD,2023-06-17 05:48:42,15.69915206,0.0003239,69.9982,139.8036,261.3592,98.7237,-1.6091e-05,-2.146e-05,0.0,0 STARLINK-5846,1 56492U 23064AW  23168.24215890 -.00002146  00000-0 -16091-4 0  9998,2 56492  69.9982 139.8036 0003239 261.3592  98.7237 15.69915206  6260,6737.277,91.725,361.324,356.959,0.0
56492.0,STARLINK-5846,PAYLOAD,2023-06-17 10:23:57,15.69920493,0.000333,69.9985,139.267,263.9581,96.1235,6.9847e-06,6.27e-06,0.0,0 STARLINK-5846,1 56492U 23064AW  23168.43330706  .00000627  00000-0  69847-5 0  9991,2 56492  69.9985 139.2670 0003330 263.9581  96.1235 15.69920493  5947,6737.261,91.724,361.37,356.883,0.0
56492.0,STARLINK-5846,PAYLOAD,2023-06-17 14:59:13,15.69923983,0.0003297,69.9989,138.7299,263.8172,96.2648,1.6616e-05,1.786e-05,0.0,0 STARLINK-5846,1 56492U 23064AW  23168.62445643  .00001786  00000-0  16616-4 0  9991,2 56492  69.9989 138.7299 0003297 263.8172  96.2648 15.69923983  6328,6737.251,91.724,361.338,356.895,0.0
56492.0,STARLINK-5846,PAYLOAD,2023-06-18 04:44:58,15.6993317,0.0003361,69.9993,137.1175,262.9627,97.1186,3.4791e-05,3.974e-05,0.0,0 STARLINK-5846,1 56492U 23064AW  23169.19790305  .00003974  00000-0  34791-4 0  9997,2 56492  69.9993 137.1175 0003361 262.9627  97.1186 15.69933170  6063,6737.225,91.724,361.355,356.826,0.0
56492.0,STARLINK-5846,PAYLOAD,2023-06-18 15:27:15,15.69925892,0.0003105,69.9988,135.8637,261.404,98.6804,3.2364e-05,3.681e-05,0.0,0 STARLINK-5846,1 56492U 23064AW  23169.64392526  .00003681  00000-0  32364-4 0  9999,2 56492  69.9988 135.8637 0003105 261.4040  98.6804 15.69925892  6485,6737.246,91.724,361.203,357.019,0.0
56492.0,STARLINK-5846,PAYLOAD,2023-06-19 00:37:45,15.69934985,0.0003155,69.999,134.7887,258.4198,101.6643,4.8819e-05,5.664e-05,0.0,0 STARLINK-5846,1 56492U 23064AW  23170.02622207  .00005664  00000-0  48819-4 0  9990,2 56492  69.9990 134.7887 0003155 258.4198 101.6643 15.69934985  6195,6737.22,91.724,361.211,356.959,0.0
56492.0,STARLINK-5846,PAYLOAD,2023-06-19 05:13:00,15.69936802,0.0003189,69.9998,134.2517,261.1704,98.9131,5.0904e-05,5.915e-05,0.0,0 STARLINK-5846,1 56492U 23064AW  23170.21737125  .00005915  00000-0  50904-4 0  9994,2 56492  69.9998 134.2517 0003189 261.1704  98.9131 15.69936802  6571,6737.215,91.723,361.228,356.931,0.0
56492.0,STARLINK-5846,PAYLOAD,2023-06-19 06:44:46,15.69934991,0.0003183,69.9998,134.0723,261.138,98.9456,4.7907e-05,5.554e-05,0.0,0 STARLINK-5846,1 56492U 23064AW  23170.28108861  .00005554  00000-0  47907-4 0  9998,2 56492  69.9998 134.0723 0003183 261.1380  98.9456 15.69934991  6232,6737.22,91.724,361.229,356.941,0.0
56492.0,STARLINK-5846,PAYLOAD,2023-06-20 04:09:17,15.69931647,0.0002518,70.0014,131.5676,242.6071,117.4869,3.4552e-05,3.945e-05,0.0,0 STARLINK-5846,1 56492U 23064AW  23171.17312415  .00003945  00000-0  34552-4 0  9993,2 56492  70.0014 131.5676 0002518 242.6071 117.4869 15.69931647  6729,6737.23,91.724,360.791,357.398,0.0
